IRIDIUM 26              
1 24903U 97043A   25212.95551246  .00000314  00000+0  99129-4 0  9991
2 24903  86.3931  91.8137 0001973  82.8938 277.2483 14.37172907463172
IRIDIUM 22              
1 24907U 97043E   25212.71333373  .00000307  00000+0  98936-4 0  9995
2 24907  86.3939  95.4951 0002066  87.6891 272.4543 14.35981817463162
DUMMY MASS 1            
1 24925U 97048A   25212.96585394  .00000413  00000+0  42957-4 0  9999
2 24925  86.3354 114.6311 0006599   9.0327 351.1015 14.87016963511783
DUMMY MASS 2            
1 24926U 97048B   25212.86816131  .00000407  00000+0  42552-4 0  9999
2 24926  86.3356 116.2920 0007848  18.1670 341.9834 14.86768758511545
IRIDIUM 29              
1 24944U 97051A   25212.85970943  .00000407  00000+0  13204-3 0  9995
2 24944  86.3979 125.1687 0002332  88.7721 271.3743 14.36498014459689
IRIDIUM 33              
1 24946U 97051C   25212.82086332  .00000302  00000+0  99455-4 0  9991
2 24946  86.3895 124.4491 0005993 302.7255  57.3363 14.34915806459142
IRIDIUM 28              
1 24948U 97051E   25212.80503585  .00000350  00000+0  11042-3 0  9993
2 24948  86.3981 122.6821 0001783  75.6670 284.4725 14.37411785460256
IRIDIUM 36              
1 24967U 97056C   25212.90060862  .00000394  00000+0  12486-3 0  9997
2 24967  86.4018 154.2306 0002015  89.2849 270.8579 14.37638734458647
